NORAD_CAT_ID,OBJECT_NAME,OBJECT_TYPE,EPOCH,MEAN_MOTION,ECCENTRICITY,INCLINATION,RA_OF_ASC_NODE,ARG_OF_PERICENTER,MEAN_ANOMALY,BSTAR,MEAN_MOTION_DOT,MEAN_MOTION_DDOT,TLE_LINE0,TLE_LINE1,TLE_LINE2,SEMIMAJOR_AXIS,PERIOD,APOGEE,PERIGEE,DECAYED
51750.0,STARLINK-3505,PAYLOAD,2023-06-19 12:05:15,15.08845869,0.0001016,53.2179,92.1917,85.1012,275.0096,4.8724e-06,-2.1e-06,0.0,0 STARLINK-3505,1 51750U 22016AN  23170.50365031 -.00000210  00000-0  48724-5 0  9999,2 51750  53.2179  92.1917 0001016  85.1012 275.0096 15.08845869 74735,6917.862,95.437,540.43,539.025,0.0
51750.0,STARLINK-3505,PAYLOAD,2023-06-20 11:56:02,15.08839073,0.0001193,53.2179,87.7341,77.2754,282.8372,0.0001714,2.441e-05,0.0,0 STARLINK-3505,1 51750U 22016AN  23171.49725491  .00002441  00000-0  17140-3 0  9991,2 51750  53.2179  87.7341 0001193  77.2754 282.8372 15.08839073 73762,6917.883,95.438,540.574,538.923,0.0
51750.0,STARLINK-3505,PAYLOAD,2023-06-20 18:17:35,15.08844211,0.0001094,53.2176,86.5437,81.5453,278.5663,6.2176e-05,7.02e-06,0.0,0 STARLINK-3505,1 51750U 22016AN  23171.76221396  .00000702  00000-0  62176-4 0  9994,2 51750  53.2176  86.5437 0001094  81.5453 278.5663 15.08844211 74920,6917.868,95.437,540.489,538.976,0.0
51750.0,STARLINK-3505,PAYLOAD,2023-06-21 00:39:07,15.08852867,0.0001246,53.2187,85.3509,95.1576,264.9558,0.00014027,1.946e-05,0.0,0 STARLINK-3505,1 51750U 22016AN  23172.02716530  .00001946  00000-0  14027-3 0  9995,2 51750  53.2187  85.3509 0001246  95.1576 264.9558 15.08852867 74967,6917.841,95.437,540.568,538.844,0.0
51750.0,STARLINK-3505,PAYLOAD,2023-06-21 11:46:49,15.08848998,9.47e-05,53.2185,83.2722,94.0944,266.0157,2.8949e-05,1.73e-06,0.0,0 STARLINK-3505,1 51750U 22016AN  23172.49084842  .00000173  00000-0  28949-4 0  9990,2 51750  53.2185  83.2722 0000947  94.0944 266.0157 15.08848998 75030,6917.853,95.437,540.373,539.063,0.0
51750.0,STARLINK-3505,PAYLOAD,2023-06-22 00:29:54,15.0884044,0.0001383,53.2189,80.8916,97.5925,262.5224,5.5649e-06,-1.99e-06,0.0,0 STARLINK-3505,1 51750U 22016AN  23173.02077508 -.00000199  00000-0  55649-5 0  9998,2 51750  53.2189  80.8916 0001383  97.5925 262.5224 15.08840440 75113,6917.879,95.438,540.701,538.787,0.0
51750.0,STARLINK-3505,PAYLOAD,2023-06-23 17:49:57,15.08830354,0.0001278,53.2187,73.1633,94.4614,265.6524,6.558e-05,7.56e-06,0.0,0 STARLINK-3505,1 51750U 22016AN  23174.74302131  .00000756  00000-0  65580-4 0  9993,2 51750  53.2187  73.1633 0001278  94.4614 265.6524 15.08830354 75374,6917.91,95.438,540.659,538.891,0.0
51750.0,STARLINK-3505,PAYLOAD,2023-06-25 03:13:02,15.08845621,0.0001079,53.2184,66.9189,89.5895,270.5221,0.00013459,1.855e-05,0.0,0 STARLINK-3505,1 51750U 22016AN  23176.13405438  .00001855  00000-0  13459-3 0  9990,2 51750  53.2184  66.9189 0001079  89.5895 270.5221 15.08845621 75587,6917.863,95.437,540.475,538.982,0.0
51750.0,STARLINK-3505,PAYLOAD,2023-06-26 01:28:26,15.08842074,0.000123,53.2185,62.757,89.2484,270.8649,0.00012995,1.781e-05,0.0,0 STARLINK-3505,1 51750U 22016AN  23177.06141781  .00001781  00000-0  12995-3 0  9993,2 51750  53.2185  62.7570 0001230  89.2484 270.8649 15.08842074 75728,6917.874,95.437,540.59,538.888,0.0
51750.0,STARLINK-3505,PAYLOAD,2023-06-26 15:46:55,15.08835434,0.0001118,53.2179,60.0797,102.0891,258.0226,3.2651e-05,2.32e-06,0.0,0 STARLINK-3505,1 51750U 22016AN  23177.65758465  .00000232  00000-0  32651-4 0  9993,2 51750  53.2179  60.0797 0001118 102.0891 258.0226 15.08835434 75815,6917.894,95.438,540.533,538.986,0.0
51750.0,STARLINK-3505,PAYLOAD,2023-06-27 01:19:13,15.08846647,0.0001,53.218,58.2927,93.8559,266.2548,4.2994e-05,3.97e-06,0.0,0 STARLINK-3505,1 51750U 22016AN  23178.05501790  .00000397  00000-0  42994-4 0  9998,2 51750  53.2180  58.2927 0001000  93.8559 266.2548 15.08846647 75871,6917.86,95.437,540.417,539.033,0.0
51750.0,STARLINK-3505,PAYLOAD,2023-06-27 09:16:09,15.08842336,0.0001133,53.2185,56.8073,89.1875,270.9247,-2.759e-05,-7.27e-06,0.0,0 STARLINK-3505,1 51750U 22016AN  23178.38622277 -.00000727  00000-0 -27590-4 0  9992,2 51750  53.2185  56.8073 0001133  89.1875 270.9247 15.08842336 75923,6917.873,95.437,540.522,538.954,0.0
51750.0,STARLINK-3505,PAYLOAD,2023-06-28 01:10:00,15.08847234,0.0001112,53.2186,53.8332,93.5664,266.5456,7.455e-05,8.99e-06,0.0,0 STARLINK-3505,1 51750U 22016AN  23179.04861793  .00000899  00000-0  74550-4 0  9990,2 51750  53.2186  53.8332 0001112  93.5664 266.5456 15.08847234 76028,6917.858,95.437,540.493,538.954,0.0
51750.0,STARLINK-3505,PAYLOAD,2023-06-28 23:25:25,15.08840085,0.0001245,53.2194,49.669,110.1607,249.9519,4.2744e-05,3.92e-06,0.0,0 STARLINK-3505,1 51750U 22016AN  23179.97598427  .00000392  00000-0  42744-4 0  9991,2 51750  53.2194  49.6690 0001245 110.1607 249.9519 15.08840085 76164,6917.88,95.438,540.606,538.884,0.0
51750.0,STARLINK-3505,PAYLOAD,2023-07-01 00:42:22,15.08840404,0.0001204,53.2189,40.4529,88.9393,271.1738,6.4654e-05,7.41e-06,0.0,0 STARLINK-3505,1 51750U 22016AN  23182.02942449  .00000741  00000-0  64654-4 0  9990,2 51750  53.2189  40.4529 0001204  88.9393 271.1738 15.08840404 76476,6917.879,95.438,540.577,538.911,0.0
51750.0,STARLINK-3505,PAYLOAD,2023-07-01 18:11:37,15.08837254,0.000116,53.2186,37.1817,90.3281,269.7844,-8.6836e-09,-2.88e-06,0.0,0 STARLINK-3505,1 51750U 22016AN  23182.75806907 -.00000288  00000-0 -86836-8 0  9996,2 51750  53.2186  37.1817 0001160  90.3281 269.7844 15.08837254 76582,6917.889,95.438,540.556,538.951,0.0
51750.0,STARLINK-3505,PAYLOAD,2023-07-03 00:23:57,15.08825776,0.0001136,53.2188,31.5326,89.9623,270.15,-5.1116e-05,-1.101e-05,0.0,0 STARLINK-3505,1 51750U 22016AN  23184.01664151 -.00001101  00000-0 -51116-4 0  9994,2 51750  53.2188  31.5326 0001136  89.9623 270.1500 15.08825776 76776,6917.924,95.438,540.575,539.003,0.0
51750.0,STARLINK-3505,PAYLOAD,2023-07-03 17:53:11,15.08836037,0.0001057,53.2184,28.2614,89.4905,270.6209,0.00010123,1.323e-05,0.0,0 STARLINK-3505,1 51750U 22016AN  23184.74527465  .00001323  00000-0  10123-3 0  9996,2 51750  53.2184  28.2614 0001057  89.4905 270.6209 15.08836037 76880,6917.893,95.438,540.489,539.026,0.0
51750.0,STARLINK-3505,PAYLOAD,2023-07-04 20:54:44,15.08844349,0.0001003,53.2186,23.2068,92.9717,267.139,0.00023778,3.499e-05,0.0,0 STARLINK-3505,1 51750U 22016AN  23185.87134679  .00003499  00000-0  23778-3 0  9998,2 51750  53.2186  23.2068 0001003  92.9717 267.1390 15.08844349 77058,6917.867,95.437,540.426,539.038,0.0
51750.0,STARLINK-3505,PAYLOAD,2023-07-05 06:27:03,15.08840327,9.39e-05,53.2186,21.4227,79.2293,280.8805,0.00017095,2.434e-05,0.0,0 STARLINK-3505,1 51750U 22016AN  23186.26879192  .00002434  00000-0  17095-3 0  9991,2 51750  53.2186  21.4227 0000939  79.2293 280.8805 15.08840327 77111,6917.879,95.438,540.394,539.095,0.0
51750.0,STARLINK-3505,PAYLOAD,2023-07-06 06:17:50,15.08842071,9.22e-05,53.2196,16.9598,104.0424,256.0671,1.6006e-05,-3.3e-07,0.0,0 STARLINK-3505,1 51750U 22016AN  23187.26239400 -.00000033  00000-0  16006-4 0  9990,2 51750  53.2196  16.9598 0000922 104.0424 256.0671 15.08842071 77267,6917.874,95.437,540.377,539.101,0.0
51750.0,STARLINK-3505,PAYLOAD,2023-07-07 18:51:42,15.08847686,9.77e-05,53.2188,10.1214,86.2891,273.8213,0.00015201,2.133e-05,0.0,0 STARLINK-3505,1 51750U 22016AN  23188.78590550  .00002133  00000-0  15201-3 0  9991,2 51750  53.2188  10.1214 0000977  86.2891 273.8213 15.08847686 77499,6917.857,95.437,540.398,539.046,0.0
51750.0,STARLINK-3505,PAYLOAD,2023-07-08 18:42:29,15.0884384,8.86e-05,53.2189,5.6623,90.3202,269.7892,7.5584e-05,9.16e-06,0.0,0 STARLINK-3505,1 51750U 22016AN  23189.77950957  .00000916  00000-0  75584-4 0  9990,2 51750  53.2189   5.6623 0000886  90.3202 269.7892 15.08843840 77646,6917.869,95.437,540.347,539.121,0.0
51750.0,STARLINK-3505,PAYLOAD,2023-07-09 12:11:45,15.08832321,0.0001105,53.2203,2.3944,99.8949,260.2167,-3.9297e-05,-9.13e-06,0.0,0 STARLINK-3505,1 51750U 22016AN  23190.50816050 -.00000913  00000-0 -39297-4 0  9998,2 51750  53.2203   2.3944 0001105  99.8949 260.2167 15.08832321 77755,6917.904,95.438,540.533,539.004,0.0
51750.0,STARLINK-3505,PAYLOAD,2023-07-09 21:44:03,15.08839233,0.0001027,53.2193,0.6086,93.3366,266.7743,2.8248e-06,-2.43e-06,0.0,0 STARLINK-3505,1 51750U 22016AN  23190.90559556 -.00000243  00000-0  28248-5 0  9997,2 51750  53.2193   0.6086 0001027  93.3366 266.7743 15.08839233 77813,6917.883,95.438,540.458,539.037,0.0
51750.0,STARLINK-3505,PAYLOAD,2023-07-10 19:59:26,15.0884513,0.0001051,53.219,356.4443,95.8334,264.2778,9.5109e-05,1.226e-05,0.0,0 STARLINK-3505,1 51750U 22016AN  23191.83295013  .00001226  00000-0  95109-4 0  9995,2 51750  53.2190 356.4443 0001051  95.8334 264.2778 15.08845130 77957,6917.865,95.437,540.457,539.003,0.0
51750.0,STARLINK-3505,PAYLOAD,2023-07-11 03:56:22,15.08841671,0.0001041,53.2195,354.9561,92.5128,267.5983,3.595e-05,2.84e-06,0.0,0 STARLINK-3505,1 51750U 22016AN  23192.16415397  .00000284  00000-0  35950-4 0  9992,2 51750  53.2195 354.9561 0001041  92.5128 267.5983 15.08841671 78007,6917.875,95.437,540.46,539.02,0.0
51750.0,STARLINK-3505,PAYLOAD,2023-07-12 10:08:42,15.08841793,0.0001172,53.2191,349.3066,86.2368,273.8758,2.3819e-05,9.1e-07,0.0,0 STARLINK-3505,1 51750U 22016AN  23193.42271720  .00000091  00000-0  23819-4 0  9999,2 51750  53.2191 349.3066 0001172  86.2368 273.8758 15.08841793 78197,6917.875,95.437,540.551,538.929,0.0
51750.0,STARLINK-3505,PAYLOAD,2023-07-12 18:05:37,15.0884991,9.97e-05,53.2187,347.821,89.5993,270.5114,6.3945e-05,7.3e-06,0.0,0 STARLINK-3505,1 51750U 22016AN  23193.75391020  .00000730  00000-0  63945-4 0  9995,2 51750  53.2187 347.8210 0000997  89.5993 270.5114 15.08849910 78245,6917.85,95.437,540.405,539.025,0.0
51750.0,STARLINK-3505,PAYLOAD,2023-07-13 16:21:02,15.08836155,0.0001124,53.2194,343.6596,76.9271,283.1846,-8.4125e-06,-4.22e-06,0.0,0 STARLINK-3505,1 51750U 22016AN  23194.68128242 -.00000422  00000-0 -84125-5 0  9996,2 51750  53.2194 343.6596 0001124  76.9271 283.1846 15.08836155 78380,6917.892,95.438,540.535,538.98,0.0
